INTELSAT 14 (IS-14)     
1 36097U 09064A   22171.43817060 -.00000280  00000+0  00000+0 0  9995
2 36097   0.0156 302.9234 0002744 156.5823 281.8540  1.00272573 45980
EUTELSAT 36B            
1 36101U 09065A   22171.45430596  .00000148  00000+0  00000+0 0  9991
2 36101   0.0686  22.7724 0005026  68.2504  17.0551  1.00273840 46100
INTELSAT 15 (IS-15)     
1 36106U 09067A   22171.51854781 -.00000192  00000+0  00000+0 0  9991
2 36106   0.0095  12.3586 0002395  86.2752  81.8876  1.00271083 26611
WGS F3 (USA 211)        
1 36108U 09068A   22171.51854781 -.00000197  00000+0  00000+0 0  9999
2 36108   0.1593  95.2278 0000201  45.4679  40.3733  1.00269029 31990
DIRECTV 12              
1 36131U 09075A   22171.54610588 -.00000110  00000+0  00000+0 0  9996
2 36131   0.0136 166.3193 0000340  28.1192 168.1749  1.00269468 31944
BEIDOU 3                
1 36287U 10001A   22171.54684970 -.00000290  00000+0  00000+0 0  9994
2 36287   1.8850  47.7264 0004460  26.2408 171.9652  1.00266336 45542
RADUGA-1M 2             
1 36358U 10002A   22171.39227413 -.00000191  00000+0  00000+0 0  9992
2 36358   0.0717 260.3132 0002303 216.6259  17.8440  1.00272555 35478
SDO                     
1 36395U 10005A   22171.35485753 -.00000073  00000+0  00000+0 0  9994
2 36395  31.6624 109.1753 0001454 263.0476 282.0631  1.00270397 45446
INTELSAT 16 (IS-16)     
1 36397U 10006A   22171.48903438 -.00000251  00000+0  00000+0 0  9994
2 36397   0.0097 352.4290 0002178 114.6634 261.4278  1.00271237 45039
GOES 15                 
1 36411U 10008A   22171.53120764  .00000050  00000+0  00000+0 0  9998
2 36411   0.3007 102.3810 0002188   6.7533 222.3789  1.00268426 45051
ECHOSTAR 14             
1 36499U 10010A   22171.51160451 -.00000006  00000+0  00000+0 0  9994
2 36499   0.0182 327.6954 0002741 122.1311 244.1389  1.00271164 31934
SES-1                   
1 36516U 10016A   22171.54872887 -.00000121  00000+0  00000+0 0  9994
2 36516   0.0116 341.6774 0002833 108.2537 275.3315  1.00271285 44421
ASTRA 3B                
1 36581U 10021A   22171.30831420  .00000130  00000+0  00000+0 0  9993
2 36581   0.0478 331.0236 0003042 125.4460 306.4931  1.00269236 44253
COMSATBW-2              
1 36582U 10021B   22171.30622097  .00000081  00000+0  00000+0 0  9997
2 36582   0.0447  77.9738 0002730  29.0360 284.8866  1.00271706 44334
BADR-5                  
1 36592U 10025A   22171.30875029  .00000137  00000+0  00000+0 0  9999
2 36592   0.0416 128.9211 0005146 349.7037 286.9845  1.00269699 38590
COMS 1                  
1 36744U 10032A   22171.56806051 -.00000351  00000+0  00000+0 0  9992
2 36744   1.0783  92.7244 0000931 356.8494 151.8195  1.00271155 36477
ARABSAT-5A              
1 36745U 10032B   22171.30970969  .00000146  00000+0  00000+0 0  9996
2 36745   0.0637  46.1448 0004968  69.6347 294.6931  1.00273689 44022
ECHOSTAR 15             
1 36792U 10034A   22171.46577177 -.00000288  00000+0  00000+0 0  9999
2 36792   0.0103 345.3658 0002051  90.9243 298.3737  1.00269599 43717
BEIDOU 5                
1 36828U 10036A   22171.34286200 -.00000063  00000+0  00000+0 0  9993
2 36828  54.1947 176.1992 0030952 190.5909 129.5376  1.00297808 43607
NILESAT 201             
1 36830U 10037A   22171.33938191 -.00000064  00000+0  00000+0 0  9990
2 36830   0.0498 184.9787 0004167 288.6006 270.1164  1.00272115 43743
RASCOM-QAF 1R           
1 36831U 10037B   22171.37596434  .00000012  00000+0  00000+0 0  9997
2 36831   0.0431  89.5615 0005427   2.1917 315.0513  1.00272968 43676
AEHF-1 (USA 214)        
1 36868U 10039A   22171.37613876  .00000017  00000+0  00000+0 0  9994
2 36868   4.5402  86.7307 0007610  13.9169 307.2886  1.00270081 39030
QZS-1 (MICHIBIKI-1)     
1 37158U 10045A   22170.75607490 -.00000114  00000+0  00000+0 0  9999
2 37158  42.3392 133.3543 0761206 270.6689 277.5720  1.00257914 43119
XM-5                    
1 37185U 10053A   22171.50605016 -.00000030  00000+0  00000+0 0  9991
2 37185   0.0185   4.0514 0000341 326.8313   4.7889  1.00271008 42863
BSAT-3B                 
1 37207U 10056B   22171.32758006 -.00000358  00000+0  00000+0 0  9990
2 37207   0.0565 323.2228 0001564  35.0934 137.9825  1.00271504 37509
BEIDOU 6                
1 37210U 10057A   22171.57267966 -.00000119  00000+0  00000+0 0  9997
2 37210   0.8553  47.5423 0003229 125.2311 102.1679  1.00271004 42661
SKYTERRA 1              
1 37218U 10061A   22171.54745825 -.00000125  00000+0  00000+0 0  9999
2 37218   2.4492  32.6471 0002191  16.6285 315.1949  1.00271400 42573
ZHONGXING-20A           
1 37234U 10064A   22171.54135495 -.00000365  00000+0  00000+0 0  9992
2 37234   2.6575  88.5537 0003054  23.1256 104.6757  1.00267462 42412
HYLAS 1                 
1 37237U 10065A   22171.46774456  .00000019  00000+0  00000+0 0  9998
2 37237   1.9265  90.2215 0002121   3.8822 219.6811  1.00273191 42362
INTELSAT 17 (IS-17)     
1 37238U 10065B   22171.46023679 -.00000009  00000+0  00000+0 0  9993
2 37238   0.0305 258.3130 0002625 199.6533  42.3640  1.00272105 38622
BEIDOU 7                
1 37256U 10068A   22171.61433280 -.00000217  00000+0  00000+0 0  9997
2 37256  50.2061 289.6122 0021644 185.1169 120.0016  1.00248923 42170
EUTELSAT KA-SAT 9A      
1 37258U 10069A   22171.37718538  .00000054  00000+0  00000+0 0  9993
2 37258   0.0695 274.3717 0004916 212.0243 286.9642  1.00268766 29376
HISPASAT 30W-5          
1 37264U 10070A   22171.36785461 -.00000223  00000+0  00000+0 0  9999
2 37264   0.0464 115.9258 0005609 349.7082 265.3521  1.00272126 38569
KOREASAT 6              
1 37265U 10070B   22171.56632733 -.00000369  00000+0  00000+0 0  9996
2 37265   0.0184  45.1677 0001569  50.6820 132.7686  1.00271443 42157
BEIDOU 8                
1 37384U 11013A   22170.61299301 -.00000204  00000+0  00000+0 0  9999
2 37384  60.2923  54.2390 0017975 185.0827 355.0385  1.00255875 41043
INTELSAT NEW DAWN       
1 37392U 11016A   22171.21646831  .00000148  00000+0  00000+0 0  9998
2 37392   0.0062  19.1786 0001557  45.1574 314.7722  1.00260964 38667
YAHSAT 1A               
1 37393U 11016B   22171.45762025  .00000094  00000+0  00000+0 0  9999
2 37393   0.0183  17.8989 0002359  87.9220  20.0493  1.00268251 27785
SBIRS GEO-1 (USA 230)   
1 37481U 11019A   22171.46032403 -.00000016  00000+0  00000+0 0  9996
2 37481   1.9187  24.1232 0001906  65.5424  50.8939  1.00271990 40723
TELSTAR 14R             
1 37602U 11021A   22171.35917747 -.00000287  00000+0  00000+0 0  9995
2 37602   0.0209  33.6492 0003031  37.1286 264.0539  1.00272275 41215
GSAT-8                  
1 37605U 11022A   22171.45805635  .00000078  00000+0  00000+0 0  9999
2 37605   0.0271 102.9803 0002167 192.7926 192.8191  1.00271565 38603
ST-2                    
1 37606U 11022B   22171.46468493 -.00000218  00000+0  00000+0 0  9995
2 37606   0.0164  18.1024 0001618 108.2124  37.6233  1.00270674 40662
CHINASAT 10 (ZX 10)     
1 37677U 11026A   22171.56661012 -.00000359  00000+0  00000+0 0  9996
2 37677   0.0678 248.3084 0003708 248.4865  86.4114  1.00273422 40376
TIANLIAN 1-02           
1 37737U 11032A   22171.58080007 -.00000057  00000+0  00000+0 0  9996
2 37737   2.3204  74.4407 0084718 359.6101 210.8566  1.00270992 40102
GSAT-12                 
1 37746U 11034A   22171.16966286  .00000117  00000+0  00000+0 0  9990
2 37746   1.3879  92.5184 0011783 358.2289 286.6291  1.00271862 28879
SES-3                   
1 37748U 11035A   22171.54578760 -.00000108  00000+0  00000+0 0  9992
2 37748   0.0365  58.8594 0002895  27.7341 275.6003  1.00270899 39979
KAZSAT-2                
1 37749U 11035B   22171.36438303 -.00000205  00000+0  00000+0 0  9999
2 37749   0.0266 181.9259 0001042 339.1219 325.1802  1.00272030 38777
BEIDOU 9                
1 37763U 11038A   22171.29786435 -.00000027  00000+0  00000+0 0  9994
2 37763  54.4764 178.6933 0098377 228.1460  64.3494  1.00278822 40028
ASTRA 1N                
1 37775U 11041A   22171.30744201  .00000112  00000+0  00000+0 0  9992
2 37775   0.0547  39.3297 0005599  21.3914 337.6306  1.00270055 29906
BSAT-3C (JCSAT-110R)    
1 37776U 11041B   22171.56660997 -.00000358  00000+0  00000+0 0  9993
2 37776   0.0243  48.0928 0000449 137.1152  37.4832  1.00272529 35866
PAKSAT-1R               
1 37779U 11042A   22171.31110517  .00000147  00000+0  00000+0 0  9993
2 37779   0.0353 143.5923 0004188 305.2320 329.6015  1.00271173 39852
CHINASAT 1A (ZX 1A)     
1 37804U 11047A   22171.56778523 -.00000345  00000+0  00000+0 0  9992
2 37804   0.0427 107.9910 0000658 232.3313 262.6591  1.00268995 12745
SES-2                   
1 37809U 11049A   22171.48938160 -.00000202  00000+0  00000+0 0  9997
2 37809   0.0258  60.2972 0002917  35.7889 261.7655  1.00272017 39340
ARABSAT-5C              
1 37810U 11049B   22171.30761645  .00000116  00000+0  00000+0 0  9995
2 37810   0.0511   5.4291 0005780 131.8574 261.9283  1.00271371 39430
EUTELSAT 7 WEST A       
1 37816U 11051A   22171.33938191 -.00000067  00000+0  00000+0 0  9995
2 37816   0.0597  10.5282 0004022  97.2456 275.6149  1.00271423 39272
QUETZSAT 1              
1 37826U 11054A   22171.48938160 -.00000248  00000+0  00000+0 0  9992
2 37826   0.0123  17.6267 0003099  81.5967 268.6199  1.00271471 35271
INTELSAT 18 (IS-18)     
1 37834U 11056A   22171.56614164  .00000046  00000+0  00000+0 0  9992
2 37834   0.0211 351.4481 0002070 102.1756 198.9252  1.00271092 39198
EUTELSAT 16A            
1 37836U 11057A   22171.37831924  .00000097  00000+0  00000+0 0  9995
2 37836   0.0651   9.4751 0005390  80.8836 330.3909  1.00270708 31351
VIASAT-1                
1 37843U 11059A   22171.50605016 -.00000030  00000+0  00000+0 0  9999
2 37843   0.0168 349.9776 0002411 111.3261 234.4465  1.00270699 32704
ASIASAT 7               
1 37933U 11069A   22171.32462399 -.00000341  00000+0  00000+0 0  9990
2 37933   0.0431 111.1085 0001565 306.3263  73.4465  1.00272137 38847
